{
  "type": "FeatureCollection",
  "features": [
    {
      "type": "Feature",
      "properties": {
        "norad_id": 38755,
        "name": "SPOT 6",
        "group": "resource",
        "lat": -11.264628012761476,
        "lon": -117.15103627048934,
        "alt_km": 702.5766577072036,
        "timestamp": "2025-12-25T22:42:16.653312+00:00",
        "meta_object_name": "SPOT 6",
        "meta_object_id": "2012-047A",
        "meta_epoch": "2025-12-25T18:32:15.576000",
        "meta_mean_motion": 14.58544165,
        "meta_eccentricity": 0.0001237,
        "meta_inclination": 98.1552,
        "meta_ra_of_asc_node": 64.3153,
        "meta_arg_of_pericenter": 76.7114,
        "meta_mean_anomaly": 283.4223,
        "meta_ephemeris_type": 0,
        "meta_classification_type": "U",
        "meta_norad_cat_id": 38755,
        "meta_element_set_no": 999,
        "meta_rev_at_epoch": 70777,
        "meta_bstar": 0.00013533,
        "meta_mean_motion_dot": 5.84e-06,
        "meta_mean_motion_ddot": 0,
        "tle_line1": "1 38755U 12047A   25359.77240250  .00000584  00000+0  13533-3 0  9997",
        "tle_line2": "2 38755  98.1552  64.3153 0001237  76.7114 283.4223 14.58544165707776"
      },
      "geometry": {
        "type": "Point",
        "coordinates": [
          -117.15103627048934,
          -11.264628012761476
        ]
      }
    },
    {
      "type": "Feature",
      "properties": {
        "norad_id": 39019,
        "name": "PLEIADES 1B",
        "group": "resource",
        "lat": 81.81262597213265,
        "lon": -15.710219981866043,
        "alt_km": 689.5355231795966,
        "timestamp": "2025-12-25T22:42:16.653322+00:00",
        "meta_object_name": "PLEIADES 1B",
        "meta_object_id": "2012-068A",
        "meta_epoch": "2025-12-25T19:00:07.238880",
        "meta_mean_motion": 14.58564976,
        "meta_eccentricity": 0.0001148,
        "meta_inclination": 98.1776,
        "meta_ra_of_asc_node": 72.2364,
        "meta_arg_of_pericenter": 85.3095,
        "meta_mean_anomaly": 274.8236,
        "meta_ephemeris_type": 0,
        "meta_classification_type": "U",
        "meta_norad_cat_id": 39019,
        "meta_element_set_no": 999,
        "meta_rev_at_epoch": 69557,
        "meta_bstar": 0.00012932,
        "meta_mean_motion_dot": 5.56e-06,
        "meta_mean_motion_ddot": 0,
        "tle_line1": "1 39019U 12068A   25359.79175045  .00000556  00000+0  12932-3 0  9996",
        "tle_line2": "2 39019  98.1776  72.2364 0001148  85.3095 274.8236 14.58564976695579"
      },
      "geometry": {
        "type": "Point",
        "coordinates": [
          -15.710219981866043,
          81.81262597213265
        ]
      }
    },
    {
      "type": "Feature",
      "properties": {
        "norad_id": 39030,
        "name": "GOKTURK 2",
        "group": "resource",
        "lat": 19.04085082328105,
        "lon": -161.7224506803346,
        "alt_km": 644.3627351697805,
        "timestamp": "2025-12-25T22:42:16.653332+00:00",
        "meta_object_name": "GOKTURK 2",
        "meta_object_id": "2012-073A",
        "meta_epoch": "2025-12-25T17:44:04.046208",
        "meta_mean_motion": 14.75310187,
        "meta_eccentricity": 0.0001474,
        "meta_inclination": 97.6884,
        "meta_ra_of_asc_node": 200.753,
        "meta_arg_of_pericenter": 107.2432,
        "meta_mean_anomaly": 252.8939,
        "meta_ephemeris_type": 0,
        "meta_classification_type": "U",
        "meta_norad_cat_id": 39030,
        "meta_element_set_no": 999,
        "meta_rev_at_epoch": 69893,
        "meta_bstar": 0.00018049,
        "meta_mean_motion_dot": 1.176e-05,
        "meta_mean_motion_ddot": 0,
        "tle_line1": "1 39030U 12073A   25359.73893572  .00001176  00000+0  18049-3 0  9995",
        "tle_line2": "2 39030  97.6884 200.7530 0001474 107.2432 252.8939 14.75310187698931"
      },
      "geometry": {
        "type": "Point",
        "coordinates": [
          -161.7224506803346,
          19.04085082328105
        ]
      }
    },
    {
      "type": "Feature",
      "properties": {
        "norad_id": 39084,
        "name": "LANDSAT 8",
        "group": "resource",
        "lat": -11.181208700266652,
        "lon": -113.81081398364304,
        "alt_km": 706.9291462336487,
        "timestamp": "2025-12-25T22:42:16.653342+00:00",
        "meta_object_name": "LANDSAT 8",
        "meta_object_id": "2013-008A",
        "meta_epoch": "2025-12-25T16:53:09.174624",
        "meta_mean_motion": 14.57115365,
        "meta_eccentricity": 0.0001049,
        "meta_inclination": 98.2055,
        "meta_ra_of_asc_node": 67.5848,
        "meta_arg_of_pericenter": 93.3193,
        "meta_mean_anomaly": 266.8125,
        "meta_ephemeris_type": 0,
        "meta_classification_type": "U",
        "meta_norad_cat_id": 39084,
        "meta_element_set_no": 999,
        "meta_rev_at_epoch": 67263,
        "meta_bstar": 0.00010673,
        "meta_mean_motion_dot": 4.36e-06,
        "meta_mean_motion_ddot": 0,
        "tle_line1": "1 39084U 13008A   25359.70357841  .00000436  00000+0  10673-3 0  9997",
        "tle_line2": "2 39084  98.2055  67.5848 0001049  93.3193 266.8125 14.57115365672637"
      },
      "geometry": {
        "type": "Point",
        "coordinates": [
          -113.81081398364304,
          -11.181208700266652
        ]
      }
    },
    {
      "type": "Feature",
      "properties": {
        "norad_id": 39086,
        "name": "SARAL",
        "group": "resource",
        "lat": 76.11375368389332,
        "lon": 41.18913352244938,
        "alt_km": 773.2732314574396,
        "timestamp": "2025-12-25T22:42:16.653353+00:00",
        "meta_object_name": "SARAL",
        "meta_object_id": "2013-009A",
        "meta_epoch": "2025-12-25T17:12:25.960032",
        "meta_mean_motion": 14.32761454,
        "meta_eccentricity": 0.0002958,
        "meta_inclination": 98.5504,
        "meta_ra_of_asc_node": 183.478,
        "meta_arg_of_pericenter": 84.2961,
        "meta_mean_anomaly": 275.8561,
        "meta_ephemeris_type": 0,
        "meta_classification_type": "U",
        "meta_norad_cat_id": 39086,
        "meta_element_set_no": 999,
        "meta_rev_at_epoch": 67076,
        "meta_bstar": 6.435e-05,
        "meta_mean_motion_dot": 1.32e-06,
        "meta_mean_motion_ddot": 0,
        "tle_line1": "1 39086U 13009A   25359.71696713  .00000132  00000+0  64350-4 0  9990",
        "tle_line2": "2 39086  98.5504 183.4780 0002958  84.2961 275.8561 14.32761454670761"
      },
      "geometry": {
        "type": "Point",
        "coordinates": [
          41.18913352244938,
          76.11375368389332
        ]
      }
    },
    {
      "type": "Feature",
      "properties": {
        "norad_id": 39150,
        "name": "GAOFEN-1",
        "group": "resource",
        "lat": 24.075970876818722,
        "lon": -106.0582979022437,
        "alt_km": 631.9121905927523,
        "timestamp": "2025-12-25T22:42:16.653363+00:00",
        "meta_object_name": "GAOFEN-1",
        "meta_object_id": "2013-018A",
        "meta_epoch": "2025-12-25T18:45:04.031424",
        "meta_mean_motion": 14.76503845,
        "meta_eccentricity": 0.0018544,
        "meta_inclination": 97.9308,
        "meta_ra_of_asc_node": 70.2088,
        "meta_arg_of_pericenter": 103.4389,
        "meta_mean_anomaly": 256.8889,
        "meta_ephemeris_type": 0,
        "meta_classification_type": "U",
        "meta_norad_cat_id": 39150,
        "meta_element_set_no": 999,
        "meta_rev_at_epoch": 68265,
        "meta_bstar": 0.00019208,
        "meta_mean_motion_dot": 1.291e-05,
        "meta_mean_motion_ddot": 0,
        "tle_line1": "1 39150U 13018A   25359.78129666  .00001291  00000+0  19208-3 0  9995",
        "tle_line2": "2 39150  97.9308  70.2088 0018544 103.4389 256.8889 14.76503845682657"
      },
      "geometry": {
        "type": "Point",
        "coordinates": [
          -106.0582979022437,
          24.075970876818722
        ]
      }
    },
    {
      "type": "Feature",
      "properties": {
        "norad_id": 39160,
        "name": "VNREDSAT 1",
        "group": "resource",
        "lat": 27.531618511900994,
        "lon": 50.58734789479463,
        "alt_km": 675.6541045132117,
        "timestamp": "2025-12-25T22:42:16.653373+00:00",
        "meta_object_name": "VNREDSAT 1",
        "meta_object_id": "2013-021B",
        "meta_epoch": "2025-12-25T17:39:36.785088",
        "meta_mean_motion": 14.64942018,
        "meta_eccentricity": 0.0001167,
        "meta_inclination": 97.9351,
        "meta_ra_of_asc_node": 54.554,
        "meta_arg_of_pericenter": 82.738,
        "meta_mean_anomaly": 277.3956,
        "meta_ephemeris_type": 0,
        "meta_classification_type": "U",
        "meta_norad_cat_id": 39160,
        "meta_element_set_no": 999,
        "meta_rev_at_epoch": 67489,
        "meta_bstar": 0.00016785,
        "meta_mean_motion_dot": 8.53e-06,
        "meta_mean_motion_ddot": 0,
        "tle_line1": "1 39160U 13021B   25359.73584242  .00000853  00000+0  16785-3 0  9990",
        "tle_line2": "2 39160  97.9351  54.5540 0001167  82.7380 277.3956 14.64942018674893"
      },
      "geometry": {
        "type": "Point",
        "coordinates": [
          50.58734789479463,
          27.531618511900994
        ]
      }
    }
  ]
}